[{"OBJECT_NAME":"FLOCK 4Q-7","OBJECT_ID":"2023-174BQ","EPOCH":"2026-03-06T04:41:33.887040","MEAN_MOTION":15.48939155,"ECCENTRICITY":0.00079618,"INCLINATION":97.3938,"RA_OF_ASC_NODE":153.6912,"ARG_OF_PERICENTER":150.4451,"MEAN_ANOMALY":209.7251,"EPHEMERIS_TYPE":0,"CLASSIFICATION_TYPE":"U","NORAD_CAT_ID":58318,"ELEMENT_SET_NO":999,"REV_AT_EPOCH":12977,"BSTAR":0.00071199451,"MEAN_MOTION_DOT":0.00038528,"MEAN_MOTION_DDOT":0},{"OBJECT_NAME":"FLOCK 4Q-2","OBJECT_ID":"2023-174BS","EPOCH":"2026-03-06T13:36:56.526624","MEAN_MOTION":15.4480956,"ECCENTRICITY":0.00080497,"INCLINATION":97.3865,"RA_OF_ASC_NODE":151.9226,"ARG_OF_PERICENTER":148.4234,"MEAN_ANOMALY":211.7499,"EPHEMERIS_TYPE":0,"CLASSIFICATION_TYPE":"U","NORAD_CAT_ID":58320,"ELEMENT_SET_NO":999,"REV_AT_EPOCH":12973,"BSTAR":0.00061686872,"MEAN_MOTION_DOT":0.00028907,"MEAN_MOTION_DDOT":0},{"OBJECT_NAME":"FLOCK 4Q-9","OBJECT_ID":"2023-174BU","EPOCH":"2026-03-06T04:43:27.157440","MEAN_MOTION":15.44451921,"ECCENTRICITY":0.00081006,"INCLINATION":97.3903,"RA_OF_ASC_NODE":151.5898,"ARG_OF_PERICENTER":150.8155,"MEAN_ANOMALY":209.3547,"EPHEMERIS_TYPE":0,"CLASSIFICATION_TYPE":"U","NORAD_CAT_ID":58322,"ELEMENT_SET_NO":999,"REV_AT_EPOCH":12966,"BSTAR":0.00065052425,"MEAN_MOTION_DOT":0.00030126,"MEAN_MOTION_DDOT":0},{"OBJECT_NAME":"FLOCK 4Q-4","OBJECT_ID":"2023-174BZ","EPOCH":"2026-03-06T04:44:28.045248","MEAN_MOTION":15.44067875,"ECCENTRICITY":0.00075215,"INCLINATION":97.386,"RA_OF_ASC_NODE":150.968,"ARG_OF_PERICENTER":167.9248,"MEAN_ANOMALY":192.2182,"EPHEMERIS_TYPE":0,"CLASSIFICATION_TYPE":"U","NORAD_CAT_ID":58327,"ELEMENT_SET_NO":999,"REV_AT_EPOCH":12964,"BSTAR":0.0005919258,"MEAN_MOTION_DOT":0.00027036,"MEAN_MOTION_DDOT":0},{"OBJECT_NAME":"FLOCK 4Q-13","OBJECT_ID":"2023-174CA","EPOCH":"2026-03-06T05:42:39.080448","MEAN_MOTION":15.46733465,"ECCENTRICITY":0.00075839,"INCLINATION":97.4022,"RA_OF_ASC_NODE":153.4059,"ARG_OF_PERICENTER":162.1816,"MEAN_ANOMALY":197.9701,"EPHEMERIS_TYPE":0,"CLASSIFICATION_TYPE":"U","NORAD_CAT_ID":58328,"ELEMENT_SET_NO":999,"REV_AT_EPOCH":12973,"BSTAR":0.00063985956,"MEAN_MOTION_DOT":0.00032035,"MEAN_MOTION_DDOT":0},{"OBJECT_NAME":"FLOCK 4Q-21","OBJECT_ID":"2023-174CB","EPOCH":"2026-03-06T11:47:28.171392","MEAN_MOTION":15.57022113,"ECCENTRICITY":0.00058848,"INCLINATION":97.3938,"RA_OF_ASC_NODE":156.7012,"ARG_OF_PERICENTER":167.2966,"MEAN_ANOMALY":192.8438,"EPHEMERIS_TYPE":0,"CLASSIFICATION_TYPE":"U","NORAD_CAT_ID":58329,"ELEMENT_SET_NO":999,"REV_AT_EPOCH":12999,"BSTAR":0.00072102305,"MEAN_MOTION_DOT":0.00052263,"MEAN_MOTION_DDOT":0},{"OBJECT_NAME":"FLOCK 4BE-18","OBJECT_ID":"2024-149N","EPOCH":"2026-03-06T05:30:42.730272","MEAN_MOTION":15.38107795,"ECCENTRICITY":0.00031334,"INCLINATION":97.3778,"RA_OF_ASC_NODE":148.1398,"ARG_OF_PERICENTER":255.7322,"MEAN_ANOMALY":104.3575,"EPHEMERIS_TYPE":0,"CLASSIFICATION_TYPE":"U","NORAD_CAT_ID":60480,"ELEMENT_SET_NO":999,"REV_AT_EPOCH":8646,"BSTAR":0.00059182361,"MEAN_MOTION_DOT":0.00022157,"MEAN_MOTION_DDOT":0},{"OBJECT_NAME":"FLOCK 4BE-7","OBJECT_ID":"2024-149P","EPOCH":"2026-03-06T04:11:13.585920","MEAN_MOTION":15.36127526,"ECCENTRICITY":0.00020931,"INCLINATION":97.3809,"RA_OF_ASC_NODE":147.681,"ARG_OF_PERICENTER":246.3206,"MEAN_ANOMALY":113.7819,"EPHEMERIS_TYPE":0,"CLASSIFICATION_TYPE":"U","NORAD_CAT_ID":60481,"ELEMENT_SET_NO":999,"REV_AT_EPOCH":8641,"BSTAR":0.00050198532,"MEAN_MOTION_DOT":0.00017607,"MEAN_MOTION_DDOT":0},{"OBJECT_NAME":"FLOCK 4BE-26","OBJECT_ID":"2024-149S","EPOCH":"2026-03-06T10:48:56.725920","MEAN_MOTION":15.43533111,"ECCENTRICITY":0.00059686,"INCLINATION":97.3768,"RA_OF_ASC_NODE":148.2582,"ARG_OF_PERICENTER":250.1224,"MEAN_ANOMALY":109.9381,"EPHEMERIS_TYPE":0,"CLASSIFICATION_TYPE":"U","NORAD_CAT_ID":60484,"ELEMENT_SET_NO":999,"REV_AT_EPOCH":8649,"BSTAR":0.0021840857,"MEAN_MOTION_DOT":0.0009908,"MEAN_MOTION_DDOT":0},{"OBJECT_NAME":"FLOCK 4BE-36","OBJECT_ID":"2024-149U","EPOCH":"2026-03-06T10:56:16.965024","MEAN_MOTION":15.38981966,"ECCENTRICITY":0.00028112,"INCLINATION":97.3788,"RA_OF_ASC_NODE":148.9086,"ARG_OF_PERICENTER":267.8956,"MEAN_ANOMALY":92.1967,"EPHEMERIS_TYPE":0,"CLASSIFICATION_TYPE":"U","NORAD_CAT_ID":60486,"ELEMENT_SET_NO":999,"REV_AT_EPOCH":8653,"BSTAR":0.00063341242,"MEAN_MOTION_DOT":0.00024411,"MEAN_MOTION_DDOT":0},{"OBJECT_NAME":"FLOCK 4BE-25","OBJECT_ID":"2024-149V","EPOCH":"2026-03-06T04:30:19.932480","MEAN_MOTION":15.35857462,"ECCENTRICITY":0.0001375,"INCLINATION":97.3848,"RA_OF_ASC_NODE":147.8434,"ARG_OF_PERICENTER":233.2605,"MEAN_ANOMALY":126.8513,"EPHEMERIS_TYPE":0,"CLASSIFICATION_TYPE":"U","NORAD_CAT_ID":60487,"ELEMENT_SET_NO":999,"REV_AT_EPOCH":8641,"BSTAR":0.00046165334,"MEAN_MOTION_DOT":0.00016043,"MEAN_MOTION_DDOT":0},{"OBJECT_NAME":"FLOCK 4BE-31","OBJECT_ID":"2024-149W","EPOCH":"2026-03-06T11:47:33.475488","MEAN_MOTION":15.39771676,"ECCENTRICITY":0.00018061,"INCLINATION":97.3845,"RA_OF_ASC_NODE":149.5609,"ARG_OF_PERICENTER":259.3184,"MEAN_ANOMALY":100.7859,"EPHEMERIS_TYPE":0,"CLASSIFICATION_TYPE":"U","NORAD_CAT_ID":60488,"ELEMENT_SET_NO":999,"REV_AT_EPOCH":8655,"BSTAR":0.00065130204,"MEAN_MOTION_DOT":0.00025763,"MEAN_MOTION_DDOT":0},{"OBJECT_NAME":"FLOCK 4BE-20","OBJECT_ID":"2024-149X","EPOCH":"2026-03-06T11:45:53.587584","MEAN_MOTION":15.35149475,"ECCENTRICITY":0.00025446,"INCLINATION":97.375,"RA_OF_ASC_NODE":147.283,"ARG_OF_PERICENTER":258.2155,"MEAN_ANOMALY":101.8803,"EPHEMERIS_TYPE":0,"CLASSIFICATION_TYPE":"U","NORAD_CAT_ID":60489,"ELEMENT_SET_NO":999,"REV_AT_EPOCH":8644,"BSTAR":0.00048503522,"MEAN_MOTION_DOT":0.00016484,"MEAN_MOTION_DDOT":0},{"OBJECT_NAME":"FLOCK 4BE-23","OBJECT_ID":"2024-149Y","EPOCH":"2026-03-06T10:56:52.070208","MEAN_MOTION":15.34788189,"ECCENTRICITY":0.0002135,"INCLINATION":97.3829,"RA_OF_ASC_NODE":147.5691,"ARG_OF_PERICENTER":270.2104,"MEAN_ANOMALY":89.8895,"EPHEMERIS_TYPE":0,"CLASSIFICATION_TYPE":"U","NORAD_CAT_ID":60490,"ELEMENT_SET_NO":999,"REV_AT_EPOCH":8642,"BSTAR":0.00048246819,"MEAN_MOTION_DOT":0.00016208,"MEAN_MOTION_DDOT":0},{"OBJECT_NAME":"FLOCK 4BE-15","OBJECT_ID":"2024-149Z","EPOCH":"2026-03-06T11:04:24.526272","MEAN_MOTION":15.39764515,"ECCENTRICITY":0.00030492,"INCLINATION":97.3767,"RA_OF_ASC_NODE":148.6051,"ARG_OF_PERICENTER":318.5343,"MEAN_ANOMALY":41.5671,"EPHEMERIS_TYPE":0,"CLASSIFICATION_TYPE":"U","NORAD_CAT_ID":60491,"ELEMENT_SET_NO":999,"REV_AT_EPOCH":8652,"BSTAR":0.0020570429,"MEAN_MOTION_DOT":0.00082136,"MEAN_MOTION_DDOT":0},{"OBJECT_NAME":"FLOCK 4BE-17","OBJECT_ID":"2024-149AA","EPOCH":"2026-03-06T04:16:26.755680","MEAN_MOTION":15.36492634,"ECCENTRICITY":0.00021684,"INCLINATION":97.3821,"RA_OF_ASC_NODE":147.9613,"ARG_OF_PERICENTER":250.0725,"MEAN_ANOMALY":110.0286,"EPHEMERIS_TYPE":0,"CLASSIFICATION_TYPE":"U","NORAD_CAT_ID":60492,"ELEMENT_SET_NO":999,"REV_AT_EPOCH":8642,"BSTAR":0.00051094468,"MEAN_MOTION_DOT":0.00018135,"MEAN_MOTION_DDOT":0}]
