FLOCK 4Q-7              
1 58318U 23174BQ  26065.19553110  .00038528  00000+0  71199-3 0  9991
2 58318  97.3938 153.6912 0007961 150.4451 209.7251 15.48939155129778
FLOCK 4Q-2              
1 58320U 23174BS  26065.56732091  .00028907  00000+0  61687-3 0  9993
2 58320  97.3865 151.9226 0008049 148.4234 211.7499 15.44809560129738
FLOCK 4Q-9              
1 58322U 23174BU  26065.19684210  .00030126  00000+0  65052-3 0  9999
2 58322  97.3903 151.5898 0008100 150.8155 209.3547 15.44451921129664
FLOCK 4Q-4              
1 58327U 23174BZ  26065.19754682  .00027036  00000+0  59193-3 0  9990
2 58327  97.3860 150.9680 0007521 167.9248 192.2182 15.44067875129645
FLOCK 4Q-13             
1 58328U 23174CA  26065.23795232  .00032035  00000+0  63986-3 0  9992
2 58328  97.4022 153.4059 0007583 162.1816 197.9701 15.46733465129737
FLOCK 4Q-21             
1 58329U 23174CB  26065.49129828  .00052263  00000+0  72102-3 0  9998
2 58329  97.3938 156.7012 0005884 167.2966 192.8438 15.57022113129994
FLOCK 4BE-18            
1 60480U 24149N   26065.22966123  .00022157  00000+0  59182-3 0  9992
2 60480  97.3778 148.1398 0003133 255.7322 104.3575 15.38107795 86466
FLOCK 4BE-7             
1 60481U 24149P   26065.17446280  .00017607  00000+0  50199-3 0  9997
2 60481  97.3809 147.6810 0002093 246.3206 113.7819 15.36127526 86418
FLOCK 4BE-26            
1 60484U 24149S   26065.45065655  .00099080  00000+0  21841-2 0  9990
2 60484  97.3768 148.2582 0005968 250.1224 109.9381 15.43533111 86493
FLOCK 4BE-36            
1 60486U 24149U   26065.45575191  .00024411  00000+0  63341-3 0  9991
2 60486  97.3788 148.9086 0002811 267.8956  92.1967 15.38981966 86531
FLOCK 4BE-25            
1 60487U 24149V   26065.18773070  .00016043  00000+0  46165-3 0  9995
2 60487  97.3848 147.8434 0001375 233.2605 126.8513 15.35857462 86415
FLOCK 4BE-31            
1 60488U 24149W   26065.49135967  .00025763  00000+0  65130-3 0  9999
2 60488  97.3845 149.5609 0001806 259.3184 100.7859 15.39771676 86551
FLOCK 4BE-20            
1 60489U 24149X   26065.49020356  .00016484  00000+0  48504-3 0  9991
2 60489  97.3750 147.2830 0002544 258.2155 101.8803 15.35149475 86445
FLOCK 4BE-23            
1 60490U 24149Y   26065.45615822  .00016208  00000+0  48247-3 0  9995
2 60490  97.3829 147.5691 0002135 270.2104  89.8895 15.34788189 86420
FLOCK 4BE-15            
1 60491U 24149Z   26065.46139498  .00082136  00000+0  20570-2 0  9998
2 60491  97.3767 148.6051 0003049 318.5343  41.5671 15.39764515 86520
FLOCK 4BE-17            
1 60492U 24149AA  26065.17808745  .00018135  00000+0  51094-3 0  9999
2 60492  97.3821 147.9613 0002168 250.0725 110.0286 15.36492634 86423
